[{"OBJECT_NAME":"STARLINK-36801","OBJECT_ID":"2026-035K","EPOCH":"2026-03-24T08:17:01.634784","MEAN_MOTION":15.75358413,"ECCENTRICITY":0.0001251,"INCLINATION":97.2852,"RA_OF_ASC_NODE":16.5131,"ARG_OF_PERICENTER":98.6983,"MEAN_ANOMALY":261.4424,"EPHEMERIS_TYPE":0,"CLASSIFICATION_TYPE":"U","NORAD_CAT_ID":67888,"ELEMENT_SET_NO":999,"REV_AT_EPOCH":615,"BSTAR":0.0021472,"MEAN_MOTION_DOT":0.00335477,"MEAN_MOTION_DDOT":0},{"OBJECT_NAME":"STARLINK-36372","OBJECT_ID":"2026-035L","EPOCH":"2026-03-24T12:56:31.479936","MEAN_MOTION":15.75251026,"ECCENTRICITY":0.0001946,"INCLINATION":97.2857,"RA_OF_ASC_NODE":16.7058,"ARG_OF_PERICENTER":75.3519,"MEAN_ANOMALY":284.7962,"EPHEMERIS_TYPE":0,"CLASSIFICATION_TYPE":"U","NORAD_CAT_ID":67889,"ELEMENT_SET_NO":999,"REV_AT_EPOCH":618,"BSTAR":0.0018829,"MEAN_MOTION_DOT":0.00291275,"MEAN_MOTION_DDOT":0},{"OBJECT_NAME":"STARLINK-36363","OBJECT_ID":"2026-035M","EPOCH":"2026-03-24T08:41:23.790624","MEAN_MOTION":15.7524381,"ECCENTRICITY":0.0002162,"INCLINATION":97.2856,"RA_OF_ASC_NODE":16.4889,"ARG_OF_PERICENTER":136.346,"MEAN_ANOMALY":223.7976,"EPHEMERIS_TYPE":0,"CLASSIFICATION_TYPE":"U","NORAD_CAT_ID":67890,"ELEMENT_SET_NO":999,"REV_AT_EPOCH":615,"BSTAR":0.0024359,"MEAN_MOTION_DOT":0.00380766,"MEAN_MOTION_DDOT":0},{"OBJECT_NAME":"STARLINK-36816","OBJECT_ID":"2026-035N","EPOCH":"2026-03-24T12:00:01.999296","MEAN_MOTION":15.67237411,"ECCENTRICITY":0.0001948,"INCLINATION":97.2844,"RA_OF_ASC_NODE":16.7078,"ARG_OF_PERICENTER":102.7398,"MEAN_ANOMALY":125.8744,"EPHEMERIS_TYPE":0,"CLASSIFICATION_TYPE":"U","NORAD_CAT_ID":67891,"ELEMENT_SET_NO":999,"REV_AT_EPOCH":603,"BSTAR":-0.020992,"MEAN_MOTION_DOT":-0.01983359,"MEAN_MOTION_DDOT":0},{"OBJECT_NAME":"STARLINK-36813","OBJECT_ID":"2026-035P","EPOCH":"2026-03-24T07:46:19.934976","MEAN_MOTION":15.80954082,"ECCENTRICITY":0.000144,"INCLINATION":97.288,"RA_OF_ASC_NODE":16.5363,"ARG_OF_PERICENTER":110.1716,"MEAN_ANOMALY":249.9707,"EPHEMERIS_TYPE":0,"CLASSIFICATION_TYPE":"U","NORAD_CAT_ID":67892,"ELEMENT_SET_NO":999,"REV_AT_EPOCH":615,"BSTAR":0.00096433,"MEAN_MOTION_DOT":0.00189842,"MEAN_MOTION_DDOT":0},{"OBJECT_NAME":"STARLINK-36803","OBJECT_ID":"2026-035Q","EPOCH":"2026-03-24T07:52:49.939392","MEAN_MOTION":15.80962477,"ECCENTRICITY":0.0001972,"INCLINATION":97.2858,"RA_OF_ASC_NODE":16.5329,"ARG_OF_PERICENTER":101.0102,"MEAN_ANOMALY":259.1388,"EPHEMERIS_TYPE":0,"CLASSIFICATION_TYPE":"U","NORAD_CAT_ID":67893,"ELEMENT_SET_NO":999,"REV_AT_EPOCH":615,"BSTAR":0.0012414,"MEAN_MOTION_DOT":0.00246126,"MEAN_MOTION_DDOT":0},{"OBJECT_NAME":"STARLINK-36846","OBJECT_ID":"2026-035R","EPOCH":"2026-03-24T08:43:57.024480","MEAN_MOTION":15.75229771,"ECCENTRICITY":0.0003525,"INCLINATION":97.2865,"RA_OF_ASC_NODE":16.4853,"ARG_OF_PERICENTER":57.3405,"MEAN_ANOMALY":302.82,"EPHEMERIS_TYPE":0,"CLASSIFICATION_TYPE":"U","NORAD_CAT_ID":67894,"ELEMENT_SET_NO":999,"REV_AT_EPOCH":615,"BSTAR":0.0017665,"MEAN_MOTION_DOT":0.00272442,"MEAN_MOTION_DDOT":0},{"OBJECT_NAME":"STARLINK-36866","OBJECT_ID":"2026-035S","EPOCH":"2026-03-24T08:32:45.639456","MEAN_MOTION":15.75387743,"ECCENTRICITY":0.0001093,"INCLINATION":97.286,"RA_OF_ASC_NODE":16.4947,"ARG_OF_PERICENTER":106.7902,"MEAN_ANOMALY":253.3484,"EPHEMERIS_TYPE":0,"CLASSIFICATION_TYPE":"U","NORAD_CAT_ID":67895,"ELEMENT_SET_NO":999,"REV_AT_EPOCH":615,"BSTAR":0.0019289,"MEAN_MOTION_DOT":0.00300494,"MEAN_MOTION_DDOT":0},{"OBJECT_NAME":"STARLINK-36877","OBJECT_ID":"2026-035T","EPOCH":"2026-03-24T12:00:01.999296","MEAN_MOTION":15.75125424,"ECCENTRICITY":0.0001625,"INCLINATION":97.285,"RA_OF_ASC_NODE":16.7115,"ARG_OF_PERICENTER":94.0156,"MEAN_ANOMALY":145.8227,"EPHEMERIS_TYPE":0,"CLASSIFICATION_TYPE":"U","NORAD_CAT_ID":67896,"ELEMENT_SET_NO":999,"REV_AT_EPOCH":603,"BSTAR":0.00064643,"MEAN_MOTION_DOT":0.00097122,"MEAN_MOTION_DDOT":0},{"OBJECT_NAME":"STARLINK-36870","OBJECT_ID":"2026-035U","EPOCH":"2026-03-24T12:00:01.999296","MEAN_MOTION":15.75151722,"ECCENTRICITY":0.0001898,"INCLINATION":97.2866,"RA_OF_ASC_NODE":16.6931,"ARG_OF_PERICENTER":126.3566,"MEAN_ANOMALY":75.5026,"EPHEMERIS_TYPE":0,"CLASSIFICATION_TYPE":"U","NORAD_CAT_ID":67897,"ELEMENT_SET_NO":999,"REV_AT_EPOCH":587,"BSTAR":0.00031232,"MEAN_MOTION_DOT":0.00046633,"MEAN_MOTION_DDOT":0},{"OBJECT_NAME":"STARLINK-36810","OBJECT_ID":"2026-035V","EPOCH":"2026-03-24T12:53:29.021280","MEAN_MOTION":15.75250303,"ECCENTRICITY":0.0004001,"INCLINATION":97.2851,"RA_OF_ASC_NODE":16.7064,"ARG_OF_PERICENTER":68.0641,"MEAN_ANOMALY":292.1049,"EPHEMERIS_TYPE":0,"CLASSIFICATION_TYPE":"U","NORAD_CAT_ID":67898,"ELEMENT_SET_NO":999,"REV_AT_EPOCH":618,"BSTAR":0.001675,"MEAN_MOTION_DOT":0.00258132,"MEAN_MOTION_DDOT":0},{"OBJECT_NAME":"STARLINK-36878","OBJECT_ID":"2026-035W","EPOCH":"2026-03-23T18:04:53.206176","MEAN_MOTION":15.80850307,"ECCENTRICITY":0.00017281,"INCLINATION":97.2879,"RA_OF_ASC_NODE":15.9353,"ARG_OF_PERICENTER":112.9154,"MEAN_ANOMALY":247.2297,"EPHEMERIS_TYPE":0,"CLASSIFICATION_TYPE":"U","NORAD_CAT_ID":67899,"ELEMENT_SET_NO":999,"REV_AT_EPOCH":606,"BSTAR":0.0014225038,"MEAN_MOTION_DOT":0.00281764,"MEAN_MOTION_DDOT":0},{"OBJECT_NAME":"STARLINK-36361","OBJECT_ID":"2026-035X","EPOCH":"2026-03-24T12:00:01.999296","MEAN_MOTION":15.7752326,"ECCENTRICITY":0.0001704,"INCLINATION":97.2855,"RA_OF_ASC_NODE":16.7275,"ARG_OF_PERICENTER":104.8585,"MEAN_ANOMALY":180.8206,"EPHEMERIS_TYPE":0,"CLASSIFICATION_TYPE":"U","NORAD_CAT_ID":67900,"ELEMENT_SET_NO":999,"REV_AT_EPOCH":614,"BSTAR":-0.014849,"MEAN_MOTION_DOT":-0.02152082,"MEAN_MOTION_DDOT":0},{"OBJECT_NAME":"STARLINK-36336","OBJECT_ID":"2026-035Y","EPOCH":"2026-03-24T12:44:51.026496","MEAN_MOTION":15.75245603,"ECCENTRICITY":0.0004399,"INCLINATION":97.2855,"RA_OF_ASC_NODE":16.7158,"ARG_OF_PERICENTER":66.8549,"MEAN_ANOMALY":293.3179,"EPHEMERIS_TYPE":0,"CLASSIFICATION_TYPE":"U","NORAD_CAT_ID":67901,"ELEMENT_SET_NO":999,"REV_AT_EPOCH":618,"BSTAR":0.0015337,"MEAN_MOTION_DOT":0.002357,"MEAN_MOTION_DDOT":0},{"OBJECT_NAME":"STARLINK-36876","OBJECT_ID":"2026-035Z","EPOCH":"2026-03-24T12:00:01.999296","MEAN_MOTION":15.75167277,"ECCENTRICITY":0.0001366,"INCLINATION":97.2859,"RA_OF_ASC_NODE":16.7175,"ARG_OF_PERICENTER":88.1904,"MEAN_ANOMALY":165.6441,"EPHEMERIS_TYPE":0,"CLASSIFICATION_TYPE":"U","NORAD_CAT_ID":67902,"ELEMENT_SET_NO":999,"REV_AT_EPOCH":603,"BSTAR":5.3747e-5,"MEAN_MOTION_DOT":7.886e-5,"MEAN_MOTION_DDOT":0},{"OBJECT_NAME":"STARLINK-36257","OBJECT_ID":"2026-035AA","EPOCH":"2026-03-24T08:34:47.986176","MEAN_MOTION":15.75213799,"ECCENTRICITY":0.0003699,"INCLINATION":97.286,"RA_OF_ASC_NODE":16.4937,"ARG_OF_PERICENTER":44.0306,"MEAN_ANOMALY":316.1253,"EPHEMERIS_TYPE":0,"CLASSIFICATION_TYPE":"U","NORAD_CAT_ID":67903,"ELEMENT_SET_NO":999,"REV_AT_EPOCH":615,"BSTAR":0.0016552,"MEAN_MOTION_DOT":0.00254566,"MEAN_MOTION_DDOT":0},{"OBJECT_NAME":"STARLINK-36814","OBJECT_ID":"2026-036A","EPOCH":"2026-03-22T14:44:56.613696","MEAN_MOTION":15.50597032,"ECCENTRICITY":0.00018134,"INCLINATION":43.0003,"RA_OF_ASC_NODE":173.606,"ARG_OF_PERICENTER":246.0294,"MEAN_ANOMALY":114.0377,"EPHEMERIS_TYPE":0,"CLASSIFICATION_TYPE":"U","NORAD_CAT_ID":67904,"ELEMENT_SET_NO":999,"REV_AT_EPOCH":568,"BSTAR":0.0015665001,"MEAN_MOTION_DOT":0.00092713,"MEAN_MOTION_DDOT":0},{"OBJECT_NAME":"STARLINK-36729","OBJECT_ID":"2026-036B","EPOCH":"2026-03-24T12:00:01.999296","MEAN_MOTION":15.37651604,"ECCENTRICITY":0.0001252,"INCLINATION":42.9992,"RA_OF_ASC_NODE":162.1107,"ARG_OF_PERICENTER":276.9442,"MEAN_ANOMALY":11.1109,"EPHEMERIS_TYPE":0,"CLASSIFICATION_TYPE":"U","NORAD_CAT_ID":67905,"ELEMENT_SET_NO":999,"REV_AT_EPOCH":602,"BSTAR":-0.054858,"MEAN_MOTION_DOT":-0.01860272,"MEAN_MOTION_DDOT":0},{"OBJECT_NAME":"STARLINK-36763","OBJECT_ID":"2026-036C","EPOCH":"2026-03-24T12:00:01.999296","MEAN_MOTION":15.36166804,"ECCENTRICITY":0.0001256,"INCLINATION":42.999,"RA_OF_ASC_NODE":162.0793,"ARG_OF_PERICENTER":272.1477,"MEAN_ANOMALY":28.2921,"EPHEMERIS_TYPE":0,"CLASSIFICATION_TYPE":"U","NORAD_CAT_ID":67906,"ELEMENT_SET_NO":999,"REV_AT_EPOCH":602,"BSTAR":-0.057341,"MEAN_MOTION_DOT":-0.01853245,"MEAN_MOTION_DDOT":0},{"OBJECT_NAME":"STARLINK-36742","OBJECT_ID":"2026-036D","EPOCH":"2026-03-24T12:00:01.999296","MEAN_MOTION":15.39335495,"ECCENTRICITY":0.0001333,"INCLINATION":42.9979,"RA_OF_ASC_NODE":162.0452,"ARG_OF_PERICENTER":265.2671,"MEAN_ANOMALY":49.4457,"EPHEMERIS_TYPE":0,"CLASSIFICATION_TYPE":"U","NORAD_CAT_ID":67907,"ELEMENT_SET_NO":999,"REV_AT_EPOCH":602,"BSTAR":-0.052255,"MEAN_MOTION_DOT":-0.01871944,"MEAN_MOTION_DDOT":0},{"OBJECT_NAME":"STARLINK-36827","OBJECT_ID":"2026-036E","EPOCH":"2026-03-24T12:00:01.999296","MEAN_MOTION":15.34157485,"ECCENTRICITY":0.00013,"INCLINATION":42.9984,"RA_OF_ASC_NODE":161.8862,"ARG_OF_PERICENTER":302.1849,"MEAN_ANOMALY":75.4869,"EPHEMERIS_TYPE":0,"CLASSIFICATION_TYPE":"U","NORAD_CAT_ID":67908,"ELEMENT_SET_NO":999,"REV_AT_EPOCH":602,"BSTAR":-0.072368,"MEAN_MOTION_DOT":-0.0219085,"MEAN_MOTION_DDOT":0},{"OBJECT_NAME":"STARLINK-36822","OBJECT_ID":"2026-036F","EPOCH":"2026-03-21T23:34:08.244768","MEAN_MOTION":15.50583367,"ECCENTRICITY":0.00019638,"INCLINATION":43.0011,"RA_OF_ASC_NODE":176.576,"ARG_OF_PERICENTER":259.9323,"MEAN_ANOMALY":100.1316,"EPHEMERIS_TYPE":0,"CLASSIFICATION_TYPE":"U","NORAD_CAT_ID":67909,"ELEMENT_SET_NO":999,"REV_AT_EPOCH":559,"BSTAR":0.001545996,"MEAN_MOTION_DOT":0.00091436,"MEAN_MOTION_DDOT":0},{"OBJECT_NAME":"STARLINK-36847","OBJECT_ID":"2026-036G","EPOCH":"2026-03-22T13:33:53.255808","MEAN_MOTION":15.50570646,"ECCENTRICITY":9.254e-5,"INCLINATION":43.0008,"RA_OF_ASC_NODE":173.2112,"ARG_OF_PERICENTER":249.3874,"MEAN_ANOMALY":110.6887,"EPHEMERIS_TYPE":0,"CLASSIFICATION_TYPE":"U","NORAD_CAT_ID":67910,"ELEMENT_SET_NO":999,"REV_AT_EPOCH":568,"BSTAR":0.001448275,"MEAN_MOTION_DOT":0.00085529,"MEAN_MOTION_DDOT":0}]
